$$SOE
2460721.500000000, A.D. 2025-Feb-15 00:00:00.0000, 2.749062861573951E+08, -2.676418466189466E+06, 1.918993261488872E+07,
2460728.500000000, A.D. 2025-Feb-22 00:00:00.0000, 2.756242063319285E+08, 1.171101432876633E+07, 1.665688051743723E+07,
2460735.500000000, A.D. 2025-Mar-01 00:00:00.0000, 2.757084995443684E+08, 2.607156266265563E+07, 1.408552562362446E+07,
2460742.500000000, A.D. 2025-Mar-08 00:00:00.0000, 2.751652612568907E+08, 4.037281791072819E+07, 1.148209888000042E+07,
2460749.500000000, A.D. 2025-Mar-15 00:00:00.0000, 2.740027945647792E+08, 5.458327718595971E+07, 8.852819228994180E+06,
2460756.500000000, A.D. 2025-Mar-22 00:00:00.0000, 2.722314739291227E+08, 6.867251972653651E+07, 6.203853154609852E+06,
2460763.500000000, A.D. 2025-Mar-29 00:00:00.0000, 2.698635938385717E+08, 8.261135985983814E+07, 3.541276598493475E+06,
2460770.500000000, A.D. 2025-Apr-05 00:00:00.0000, 2.669132063948520E+08, 9.637197838412599E+07, 8.710399541587532E+05,
2460777.500000000, A.D. 2025-Apr-12 00:00:00.0000, 2.633959495931959E+08, 1.099280318346886E+08, -1.801063308354631E+06,
2460784.500000000, A.D. 2025-Apr-19 00:00:00.0000, 2.593288697060632E+08, 1.232547387276516E+08, -4.469424192524642E+06,
2460791.500000000, A.D. 2025-Apr-26 00:00:00.0000, 2.547302414261643E+08, 1.363289431029042E+08, -7.128641805455372E+06,
2460798.500000000, A.D. 2025-May-03 00:00:00.0000, 2.496193889722529E+08, 1.491291563823692E+08, -9.773543045661643E+06,
2460805.500000000, A.D. 2025-May-10 00:00:00.0000, 2.440165109212785E+08, 1.616355789348448E+08, -1.239919841241998E+07,
2460812.500000000, A.D. 2025-May-17 00:00:00.0000, 2.379425111459334E+08, 1.738301029843266E+08, -1.500093408493454E+07,
2460819.500000000, A.D. 2025-May-24 00:00:00.0000, 2.314188379648901E+08, 1.856962986925415E+08, -1.757434049824966E+07,
2460826.500000000, A.D. 2025-May-31 00:00:00.0000, 2.244673334506147E+08, 1.972193857334659E+08, -2.011527768609344E+07,
2460833.500000000, A.D. 2025-Jun-07 00:00:00.0000, 2.171100936217641E+08, 2.083861936097062E+08, -2.261987754799229E+07,
2460840.500000000, A.D. 2025-Jun-14 00:00:00.0000, 2.093693379027628E+08, 2.191851120778484E+08, -2.508454318941889E+07,
2460847.500000000, A.D. 2025-Jun-21 00:00:00.0000, 2.012672895028382E+08, 2.296060303971482E+08, -2.750594603744572E+07,
2460854.500000000, A.D. 2025-Jun-28 00:00:00.0000, 1.928260699976082E+08, 2.396402690262724E+08, -2.988102120156508E+07,
2460861.500000000, A.D. 2025-Jul-05 00:00:00.0000, 1.840676064867427E+08, 2.492805076363043E+08, -3.220696107991460E+07,
2460868.500000000, A.D. 2025-Jul-12 00:00:00.0000, 1.750135498235138E+08, 2.585207101948714E+08, -3.448120746755795E+07,
2460875.500000000, A.D. 2025-Jul-19 00:00:00.0000, 1.656852036354327E+08, 2.673560479379779E+08, -3.670144251249007E+07,
2460882.500000000, A.D. 2025-Jul-26 00:00:00.0000, 1.561034637538436E+08, 2.757828213898211E+08, -3.886557880201744E+07,
2460889.500000000, A.D. 2025-Aug-02 00:00:00.0000, 1.462887674386897E+08, 2.837983824967324E+08, -4.097174881792402E+07,
2460896.500000000, A.D. 2025-Aug-09 00:00:00.0000, 1.362610516869680E+08, 2.914010577391599E+08, -4.301829397244518E+07,
2460903.500000000, A.D. 2025-Aug-16 00:00:00.0000, 1.260397199375857E+08, 2.985900728796560E+08, -4.500375342000927E+07,
2460910.500000000, A.D. 2025-Aug-23 00:00:00.0000, 1.156436166921339E+08, 3.053654799383132E+08, -4.692685282679670E+07,
2460917.500000000, A.D. 2025-Aug-30 00:00:00.0000, 1.050910096145262E+08, 3.117280875534521E+08, -4.878649320118776E+07,
2460924.500000000, A.D. 2025-Sep-06 00:00:00.0000, 9.439957694517848E+07, 3.176793960535623E+08, -5.058173968038200E+07,
2460931.500000000, A.D. 2025-Sep-13 00:00:00.0000, 8.358639783477604E+07, 3.232215349834785E+08, -5.231181040679517E+07,
2460938.500000000, A.D. 2025-Sep-20 00:00:00.0000, 7.266794818737577E+07, 3.283572016052830E+08, -5.397606600118086E+07,
2460945.500000000, A.D. 2025-Sep-27 00:00:00.0000, 6.166010245420413E+07, 3.330896035830432E+08, -5.557399953879642E+07,
2460952.500000000, A.D. 2025-Oct-04 00:00:00.0000, 5.057813879460005E+07, 3.374224064098181E+08, -5.710522684515373E+07,
2460959.500000000, A.D. 2025-Oct-11 00:00:00.0000, 3.943674670757566E+07, 3.413596845986737E+08, -5.856947718460092E+07,
2460966.500000000, A.D. 2025-Oct-18 00:00:00.0000, 2.825003694181533E+07, 3.449058762881868E+08, -5.996658440930715E+07,
2460973.500000000, A.D. 2025-Oct-25 00:00:00.0000, 1.703155339421798E+07, 3.480657411674739E+08, -6.129647859040606E+07,
2460980.500000000, A.D. 2025-Nov-01 00:00:00.0000, 5.794286652159594E+06, 3.508443216075293E+08, -6.255917813618517E+07,
2460987.500000000, A.D. 2025-Nov-08 00:00:00.0000, -5.449311126889381E+06, 3.532469068224602E+08, -6.375478239980578E+07,
2460994.500000000, A.D. 2025-Nov-15 00:00:00.0000, -1.668731015077245E+07, 3.552789998459370E+08, -6.488346478703041E+07,
2461001.500000000, A.D. 2025-Nov-22 00:00:00.0000, -2.790828560328043E+07, 3.569462873804886E+08, -6.594546637154248E+07,
2461008.500000000, A.D. 2025-Nov-29 00:00:00.0000, -3.910129931129797E+07, 3.582546134909096E+08, -6.694108989773680E+07,
2461015.500000000, A.D. 2025-Dec-06 00:00:00.0000, -5.025588293880841E+07, 3.592099568409593E+08, -6.787069395780779E+07,
2461022.500000000, A.D. 2025-Dec-13 00:00:00.0000, -6.136202243895327E+07, 3.598184079320638E+08, -6.873468763768265E+07,
2461029.500000000, A.D. 2025-Dec-20 00:00:00.0000, -7.241014041777290E+07, 3.600861472045180E+08, -6.953352584800763E+07,
2461036.500000000, A.D. 2025-Dec-27 00:00:00.0000, -8.339107760270475E+07, 3.600194264422839E+08, -7.026770501210116E+07,
2461043.500000000, A.D. 2026-Jan-03 00:00:00.0000, -9.429607497079502E+07, 3.596245527151816E+08, -7.093775900639261E+07,
2461050.500000000, A.D. 2026-Jan-10 00:00:00.0000, -1.051167565082882E+08, 3.589078740333295E+08, -7.154425539661813E+07,
2461057.500000000, A.D. 2026-Jan-17 00:00:00.0000, -1.158451124370793E+08, 3.578757664850911E+08, -7.208779197733004E+07,
2461064.500000000, A.D. 2026-Jan-24 00:00:00.0000, -1.264734828854770E+08, 3.565346227533842E+08, -7.256899360016292E+07,
2461071.500000000, A.D. 2026-Jan-31 00:00:00.0000, -1.369945420236354E+08, 3.548908418844822E+08, -7.298850927523351E+07,
2461078.500000000, A.D. 2026-Feb-07 00:00:00.0000, -1.474012826351939E+08, 3.529508201423776E+08, -7.334700953887442E+07,
2461085.500000000, A.D. 2026-Feb-14 00:00:00.0000, -1.576870008954996E+08, 3.507209428317228E+08, -7.364518409584954E+07,
2461092.500000000, A.D. 2026-Feb-21 00:00:00.0000, -1.678452809845243E+08, 3.482075775718016E+08, -7.388373970875195E+07,
2461099.500000000, A.D. 2026-Feb-28 00:00:00.0000, -1.778699806289867E+08, 3.454170700882578E+08, -7.406339812633225E+07,
2461106.500000000, A.D. 2026-Mar-07 00:00:00.0000, -1.877552196340851E+08, 3.423557404926301E+08, -7.418489400744259E+07,
2461113.500000000, A.D. 2026-Mar-14 00:00:00.0000, -1.974953686247634E+08, 3.390298776373163E+08, -7.424897326989889E+07,
2461120.500000000, A.D. 2026-Mar-21 00:00:00.0000, -2.070850362119302E+08, 3.354457343702776E+08, -7.425639177671027E+07,
2461127.500000000, A.D. 2026-Mar-28 00:00:00.0000, -2.165190565886960E+08, 3.316095246564301E+08, -7.420791408074698E+07,
2461134.500000000, A.D. 2026-Apr-04 00:00:00.0000, -2.257924781500797E+08, 3.275274215422556E+08, -7.410431224043983E+07,
2461141.500000000, A.D. 2026-Apr-11 00:00:00.0000, -2.349005528506472E+08, 3.232055555488540E+08, -7.394636475008956E+07,
2461148.500000000, A.D. 2026-Apr-18 00:00:00.0000, -2.438387261285888E+08, 3.186500134370680E+08, -7.373485559010890E+07,
2461155.500000000, A.D. 2026-Apr-25 00:00:00.0000, -2.526026273369830E+08, 3.138668373148441E+08, -7.347057339139993E+07,
2461162.500000000, A.D. 2026-May-02 00:00:00.0000, -2.611880606366306E+08, 3.088620240171083E+08, -7.315431071099833E+07,
2461169.500000000, A.D. 2026-May-09 00:00:00.0000, -2.695909962092906E+08, 3.036415246553709E+08, -7.278686342800118E+07,
2461176.500000000, A.D. 2026-May-16 00:00:00.0000, -2.778075613954943E+08, 2.982112444411514E+08, -7.236903027521253E+07,
2461183.500000000, A.D. 2026-May-23 00:00:00.0000, -2.858340316876154E+08, 2.925770437728267E+08, -7.190161241984671E+07,
2461190.500000000, A.D. 2026-May-30 00:00:00.0000, -2.936668236418682E+08, 2.867447408756301E+08, -7.138541286998099E+07,
2461197.500000000, A.D. 2026-Jun-06 00:00:00.0000, -3.013024900125553E+08, 2.807201126959956E+08, -7.082123594007812E+07,
2461204.500000000, A.D. 2026-Jun-13 00:00:00.0000, -3.087377134274670E+08, 2.745088942248265E+08, -7.020988709018037E+07,
2461211.500000000, A.D. 2026-Jun-20 00:00:00.0000, -3.159692990943937E+08, 2.681167791543853E+08, -6.955217285014164E+07,
2461218.500000000, A.D. 2026-Jun-27 00:00:00.0000, -3.229941682267272E+08, 2.615494215144979E+08, -6.884890069939968E+07,
2461225.500000000, A.D. 2026-Jul-04 00:00:00.0000, -3.298093521742851E+08, 2.548124375003352E+08, -6.810087896305132E+07,
2461232.500000000, A.D. 2026-Jul-11 00:00:00.0000, -3.364119869907306E+08, 2.479114073461092E+08, -6.730891675479612E+07,
2461239.500000000, A.D. 2026-Jul-18 00:00:00.0000, -3.427993083313202E+08, 2.408518772570811E+08, -6.647382396974471E+07,
2461246.500000000, A.D. 2026-Jul-25 00:00:00.0000, -3.489686466441548E+08, 2.336393613905166E+08, -6.559641132609604E+07,
2461253.500000000, A.D. 2026-Aug-01 00:00:00.0000, -3.549174225954027E+08, 2.262793438267992E+08, -6.467749046138332E+07,
2461260.500000000, A.D. 2026-Aug-08 00:00:00.0000, -3.606431425028841E+08, 2.187772804854656E+08, -6.371787410356024E+07,
2461267.500000000, A.D. 2026-Aug-15 00:00:00.0000, -3.661433933529145E+08, 2.111386014282362E+08, -6.271837631600855E+07,
2461274.500000000, A.D. 2026-Aug-22 00:00:00.0000, -3.714158381526232E+08, 2.033687147628622E+08, -6.167981264502911E+07,
2461281.500000000, A.D. 2026-Aug-29 00:00:00.0000, -3.764582139001610E+08, 1.954730107695814E+08, -6.060300007105792E+07,
2461288.500000000, A.D. 2026-Sep-05 00:00:00.0000, -3.812683300316840E+08, 1.874568633791089E+08, -5.948875719264860E+07,
$$EOE